[{"OBJECT_NAME":"TIANQI-25","OBJECT_ID":"2024-102A","EPOCH":"2026-03-09T21:59:20.408352","MEAN_MOTION":13.99133359,"ECCENTRICITY":0.00097008,"INCLINATION":44.9789,"RA_OF_ASC_NODE":343.6735,"ARG_OF_PERICENTER":130.7366,"MEAN_ANOMALY":229.431,"EPHEMERIS_TYPE":0,"CLASSIFICATION_TYPE":"U","NORAD_CAT_ID":59909,"ELEMENT_SET_NO":999,"REV_AT_EPOCH":9100,"BSTAR":0.00024425271,"MEAN_MOTION_DOT":2.28e-6,"MEAN_MOTION_DDOT":0},{"OBJECT_NAME":"CZ-6A DEB","OBJECT_ID":"2022-151AW","EPOCH":"2026-03-09T22:25:33.323808","MEAN_MOTION":14.09100109,"ECCENTRICITY":0.0045763,"INCLINATION":98.8558,"RA_OF_ASC_NODE":72.037,"ARG_OF_PERICENTER":269.2309,"MEAN_ANOMALY":90.3617,"EPHEMERIS_TYPE":0,"CLASSIFICATION_TYPE":"U","NORAD_CAT_ID":54303,"ELEMENT_SET_NO":999,"REV_AT_EPOCH":17037,"BSTAR":0.00010759154,"MEAN_MOTION_DOT":1.44e-6,"MEAN_MOTION_DDOT":0}]
